start=new Date('2023-01-26T00:00:00.000Z').valueOf();
sats=[{"APOAPSIS":"548.308","FILE":"3761360","COUNTRY_CODE":"US","GP_ID":"223716473","ARG_OF_PERICENTER":"92.4129","TIME_SYSTEM":"UTC","ECCENTRICITY":"0.00015780","OBJECT_ID":"2020-088AG","OBJECT_TYPE":"PAYLOAD","SEMIMAJOR_AXIS":"6925.350","LAUNCH_DATE":"2020-11-25","ELEMENT_SET_NO":"999","MEAN_ANOMALY":"267.7040","SITE":"AFETR","PERIOD":"95.592","MEAN_MOTION_DDOT":"0.0000000000000","MEAN_MOTION":"15.06399519","PERIAPSIS":"546.122","MEAN_ELEMENT_THEORY":"SGP4","CLASSIFICATION_TYPE":"U","EPOCH":"2023-01-25T16:41:56.185152","DECAY_DATE":null,"EPHEMERIS_TYPE":"0","RCS_SIZE":"LARGE","REF_FRAME":"TEME","NORAD_CAT_ID":"47152","INCLINATION":"53.0572","OBJECT_NAME":"STARLINK-1866","RA_OF_ASC_NODE":"14.7475","CENTER_NAME":"EARTH","REV_AT_EPOCH":"12016","MEAN_MOTION_DOT":"0.00000714","TLE_LINE2":"2 47152  53.0572  14.7475 0001578  92.4129 267.7040 15.06399519120163","BSTAR":"0.00006681300000","TLE_LINE1":"1 47152U 20088AG  23025.69578918  .00000714  00000-0  66813-4 0  9992"},{"ELEMENT_SET_NO":"999","LAUNCH_DATE":"2020-11-25","MEAN_ANOMALY":"255.5400","SEMIMAJOR_AXIS":"6925.356","SITE":"AFETR","COUNTRY_CODE":"US","APOAPSIS":"548.622","FILE":"3761297","ECCENTRICITY":"0.00020230","OBJECT_ID":"2020-088AH","OBJECT_TYPE":"PAYLOAD","ARG_OF_PERICENTER":"104.5813","GP_ID":"223686925","TIME_SYSTEM":"UTC","CLASSIFICATION_TYPE":"U","PERIAPSIS":"545.820","MEAN_ELEMENT_THEORY":"SGP4","EPHEMERIS_TYPE":"0","EPOCH":"2023-01-25T07:06:47.539584","DECAY_DATE":null,"PERIOD":"95.592","MEAN_MOTION":"15.06397465","MEAN_MOTION_DDOT":"0.0000000000000","OBJECT_NAME":"STARLINK-1867","CENTER_NAME":"EARTH","RA_OF_ASC_NODE":"21.8016","NORAD_CAT_ID":"47153","RCS_SIZE":"LARGE","REF_FRAME":"TEME","INCLINATION":"53.0561","TLE_LINE1":"1 47153U 20088AH  23025.29638356  .00002316  00000-0  17437-3 0  9999","REV_AT_EPOCH":"12003","BSTAR":"0.00017437000000","MEAN_MOTION_DOT":"0.00002316","TLE_LINE2":"2 47153  53.0561  21.8016 0002023 104.5813 255.5400 15.06397465120032"},{"BSTAR":"0.00011747000000","MEAN_MOTION_DOT":"0.00001469","TLE_LINE2":"2 47154  53.0557   4.8776 0001579 110.9094 249.2064 15.06397963120308","REV_AT_EPOCH":"12030","TLE_LINE1":"1 47154U 20088AJ  23025.66817057  .00001469  00000-0  11747-3 0  9994","INCLINATION":"53.0557","NORAD_CAT_ID":"47154","RCS_SIZE":"LARGE","REF_FRAME":"TEME","CENTER_NAME":"EARTH","RA_OF_ASC_NODE":"4.8776","OBJECT_NAME":"STARLINK-1868","MEAN_MOTION_DDOT":"0.0000000000000","MEAN_MOTION":"15.06397963","PERIOD":"95.592","EPHEMERIS_TYPE":"0","EPOCH":"2023-01-25T16:02:09.937248","DECAY_DATE":null,"CLASSIFICATION_TYPE":"U","PERIAPSIS":"546.126","MEAN_ELEMENT_THEORY":"SGP4","OBJECT_ID":"2020-088AJ","ECCENTRICITY":"0.00015790","OBJECT_TYPE":"PAYLOAD","GP_ID":"223714972","ARG_OF_PERICENTER":"110.9094","TIME_SYSTEM":"UTC","COUNTRY_CODE":"US","APOAPSIS":"548.313","FILE":"3761360","SITE":"AFETR","LAUNCH_DATE":"2020-11-25","ELEMENT_SET_NO":"999","MEAN_ANOMALY":"249.2064","SEMIMAJOR_AXIS":"6925.355"},{"TLE_LINE1":"1 47155U 20088AK  23025.70318792  .00005116  00000-0  36206-3 0  9992","REV_AT_EPOCH":"12002","BSTAR":"0.00036206000000","TLE_LINE2":"2 47155  53.0538  24.7291 0001888  99.1516 260.9687 15.06404877120024","MEAN_MOTION_DOT":"0.00005116","OBJECT_NAME":"STARLINK-1869","CENTER_NAME":"EARTH","RA_OF_ASC_NODE":"24.7291","NORAD_CAT_ID":"47155","REF_FRAME":"TEME","RCS_SIZE":"LARGE","INCLINATION":"53.0538","CLASSIFICATION_TYPE":"U","MEAN_ELEMENT_THEORY":"SGP4","PERIAPSIS":"545.891","EPHEMERIS_TYPE":"0","DECAY_DATE":null,"EPOCH":"2023-01-25T16:52:35.436288","PERIOD":"95.592","MEAN_MOTION_DDOT":"0.0000000000000","MEAN_MOTION":"15.06404877","MEAN_ANOMALY":"260.9687","ELEMENT_SET_NO":"999","LAUNCH_DATE":"2020-11-25","SEMIMAJOR_AXIS":"6925.334","SITE":"AFETR","COUNTRY_CODE":"US","FILE":"3761360","APOAPSIS":"548.506","OBJECT_TYPE":"PAYLOAD","OBJECT_ID":"2020-088AK","ECCENTRICITY":"0.00018880","TIME_SYSTEM":"UTC","ARG_OF_PERICENTER":"99.1516","GP_ID":"223715222"},{"DECAY_DATE":null,"EPOCH":"2023-01-25T16:11:27.140352","EPHEMERIS_TYPE":"0","MEAN_ELEMENT_THEORY":"SGP4","PERIAPSIS":"546.256","CLASSIFICATION_TYPE":"U","MEAN_MOTION_DDOT":"0.0000000000000","MEAN_MOTION":"15.06401381","PERIOD":"95.592","SITE":"AFETR","SEMIMAJOR_AXIS":"6925.344","MEAN_ANOMALY":"269.2661","LAUNCH_DATE":"2020-11-25","ELEMENT_SET_NO":"999","TIME_SYSTEM":"UTC","ARG_OF_PERICENTER":"90.8486","GP_ID":"223715974","OBJECT_TYPE":"PAYLOAD","ECCENTRICITY":"0.00013770","OBJECT_ID":"2020-088AM","FILE":"3761360","APOAPSIS":"548.163","COUNTRY_CODE":"US","TLE_LINE1":"1 47157U 20088AM  23025.67461968  .00002031  00000-0  15519-3 0  9991","TLE_LINE2":"2 47157  53.0535  14.8629 0001377  90.8486 269.2661 15.06401381120161","MEAN_MOTION_DOT":"0.00002031","BSTAR":"0.00015519000000","REV_AT_EPOCH":"12016","RA_OF_ASC_NODE":"14.8629","CENTER_NAME":"EARTH","OBJECT_NAME":"STARLINK-1871","INCLINATION":"53.0535","REF_FRAME":"TEME","RCS_SIZE":"LARGE","NORAD_CAT_ID":"47157"},{"TLE_LINE2":"2 47158  53.0543   5.0559 0001440  87.2078 272.9076 15.06404733120292","MEAN_MOTION_DOT":"0.00002781","BSTAR":"0.00020547000000","REV_AT_EPOCH":"12029","TLE_LINE1":"1 47158U 20088AN  23025.63130755  .00002781  00000-0  20547-3 0  9994","INCLINATION":"53.0543","REF_FRAME":"TEME","RCS_SIZE":"LARGE","NORAD_CAT_ID":"47158","RA_OF_ASC_NODE":"5.0559","CENTER_NAME":"EARTH","OBJECT_NAME":"STARLINK-1873","MEAN_MOTION":"15.06404733","MEAN_MOTION_DDOT":"0.0000000000000","PERIOD":"95.592","DECAY_DATE":null,"EPOCH":"2023-01-25T15:09:04.972320","EPHEMERIS_TYPE":"0","PERIAPSIS":"546.202","MEAN_ELEMENT_THEORY":"SGP4","CLASSIFICATION_TYPE":"U","TIME_SYSTEM":"UTC","ARG_OF_PERICENTER":"87.2078","GP_ID":"223716724","OBJECT_TYPE":"PAYLOAD","ECCENTRICITY":"0.00014400","OBJECT_ID":"2020-088AN","FILE":"3761360","APOAPSIS":"548.196","COUNTRY_CODE":"US","SITE":"AFETR","SEMIMAJOR_AXIS":"6925.334","MEAN_ANOMALY":"272.9076","ELEMENT_SET_NO":"999","LAUNCH_DATE":"2020-11-25"},{"TLE_LINE1":"1 47161U 20088AR  23025.66448548  .00003503  00000-0  25394-3 0  9991","BSTAR":"0.00025394000000","MEAN_MOTION_DOT":"0.00003503","TLE_LINE2":"2 47161  53.0546   4.9089 0001928  95.2039 264.9170 15.06400539120300","REV_AT_EPOCH":"12030","CENTER_NAME":"EARTH","RA_OF_ASC_NODE":"4.9089","OBJECT_NAME":"STARLINK-1876","INCLINATION":"53.0546","NORAD_CAT_ID":"47161","RCS_SIZE":"LARGE","REF_FRAME":"TEME","EPHEMERIS_TYPE":"0","EPOCH":"2023-01-25T15:56:51.545472","DECAY_DATE":null,"CLASSIFICATION_TYPE":"U","PERIAPSIS":"545.877","MEAN_ELEMENT_THEORY":"SGP4","MEAN_MOTION_DDOT":"0.0000000000000","MEAN_MOTION":"15.06400539","PERIOD":"95.592","SITE":"AFETR","LAUNCH_DATE":"2020-11-25","ELEMENT_SET_NO":"999","MEAN_ANOMALY":"264.9170","SEMIMAJOR_AXIS":"6925.347","OBJECT_ID":"2020-088AR","ECCENTRICITY":"0.00019280","OBJECT_TYPE":"PAYLOAD","ARG_OF_PERICENTER":"95.2039","GP_ID":"223715472","TIME_SYSTEM":"UTC","COUNTRY_CODE":"US","APOAPSIS":"548.547","FILE":"3761360"},{"NORAD_CAT_ID":"47162","REF_FRAME":"TEME","RCS_SIZE":"LARGE","INCLINATION":"53.0530","OBJECT_NAME":"STARLINK-1877","CENTER_NAME":"EARTH","RA_OF_ASC_NODE":"14.9289","REV_AT_EPOCH":"12016","BSTAR":"0.00040530000000","TLE_LINE2":"2 47162  53.0530  14.9289 0001205  85.7155 274.3971 15.06402847120160","MEAN_MOTION_DOT":"0.00005761","TLE_LINE1":"1 47162U 20088AS  23025.65987457  .00005761  00000-0  40530-3 0  9995","COUNTRY_CODE":"US","FILE":"3761360","APOAPSIS":"548.039","OBJECT_TYPE":"PAYLOAD","OBJECT_ID":"2020-088AS","ECCENTRICITY":"0.00012050","TIME_SYSTEM":"UTC","GP_ID":"223715722","ARG_OF_PERICENTER":"85.7155","MEAN_ANOMALY":"274.3971","ELEMENT_SET_NO":"999","LAUNCH_DATE":"2020-11-25","SEMIMAJOR_AXIS":"6925.340","SITE":"AFETR","PERIOD":"95.592","MEAN_MOTION_DDOT":"0.0000000000000","MEAN_MOTION":"15.06402847","CLASSIFICATION_TYPE":"U","PERIAPSIS":"546.370","MEAN_ELEMENT_THEORY":"SGP4","EPHEMERIS_TYPE":"0","DECAY_DATE":null,"EPOCH":"2023-01-25T15:50:13.162848"},{"ELEMENT_SET_NO":"999","LAUNCH_DATE":"2020-11-25","MEAN_ANOMALY":"264.2075","SEMIMAJOR_AXIS":"6925.353","SITE":"AFETR","COUNTRY_CODE":"US","APOAPSIS":"548.245","FILE":"3761360","ECCENTRICITY":"0.00014830","OBJECT_ID":"2020-088AT","OBJECT_TYPE":"PAYLOAD","GP_ID":"223716474","ARG_OF_PERICENTER":"95.9083","TIME_SYSTEM":"UTC","CLASSIFICATION_TYPE":"U","MEAN_ELEMENT_THEORY":"SGP4","PERIAPSIS":"546.191","EPHEMERIS_TYPE":"0","EPOCH":"2023-01-25T16:36:39.975840","DECAY_DATE":null,"PERIOD":"95.592","MEAN_MOTION":"15.06398496","MEAN_MOTION_DDOT":"0.0000000000000","OBJECT_NAME":"STARLINK-1878","CENTER_NAME":"EARTH","RA_OF_ASC_NODE":"24.7895","NORAD_CAT_ID":"47163","RCS_SIZE":"LARGE","REF_FRAME":"TEME","INCLINATION":"53.0528","TLE_LINE1":"1 47163U 20088AT  23025.69212935  .00005425  00000-0  38282-3 0  9990","REV_AT_EPOCH":"12002","BSTAR":"0.00038282000000","MEAN_MOTION_DOT":"0.00005425","TLE_LINE2":"2 47163  53.0528  24.7895 0001483  95.9083 264.2075 15.06398496120023"},{"PERIAPSIS":"546.290","MEAN_ELEMENT_THEORY":"SGP4","CLASSIFICATION_TYPE":"U","DECAY_DATE":null,"EPOCH":"2023-01-25T14:43:52.296672","EPHEMERIS_TYPE":"0","PERIOD":"95.592","MEAN_MOTION":"15.06405047","MEAN_MOTION_DDOT":"0.0000000000000","SEMIMAJOR_AXIS":"6925.333","MEAN_ANOMALY":"267.0705","ELEMENT_SET_NO":"999","LAUNCH_DATE":"2020-11-25","SITE":"AFETR","FILE":"3761360","APOAPSIS":"548.106","COUNTRY_CODE":"US","TIME_SYSTEM":"UTC","ARG_OF_PERICENTER":"93.0434","GP_ID":"223716225","OBJECT_TYPE":"PAYLOAD","ECCENTRICITY":"0.00013110","OBJECT_ID":"2020-088AU","TLE_LINE1":"1 47164U 20088AU  23025.61379973  .00006404  00000-0  44837-3 0  9990","REV_AT_EPOCH":"12043","TLE_LINE2":"2 47164  53.0551 355.1322 0001311  93.0434 267.0705 15.06405047120432","MEAN_MOTION_DOT":"0.00006404","BSTAR":"0.00044837000000","OBJECT_NAME":"STARLINK-1879","RA_OF_ASC_NODE":"355.1322","CENTER_NAME":"EARTH","REF_FRAME":"TEME","RCS_SIZE":"LARGE","NORAD_CAT_ID":"47164","INCLINATION":"53.0551"}];
